P/2018 V5 (Trujillo-Sheppard),e,10.5861,171.2880,260.6861,8.954224,0.0367843,0.47468902,34.6583,05/02.0/2021,2000,g 12.5,4.0
# From MPC115884
C/2018 W1 (Catalina),e,83.2751,233.5978,251.2463,21.70062,0.0097498,0.93729898,7.0326,05/02.0/2021,2000,g 15.7,2.0
# From MPC119996
C/2018 W2 (Africano),h,09/05.6148/2019,116.6183,181.8443,157.9774,1.000406,1.455370,2000,9.5,4.0
# From MPC119996
C/2018 X2 (Fitzsimmons),e,23.0694,340.8288,162.0487,146.3027,0.0005570,0.98546550,0.0000,07/08.3721/2019,2000,g 12.0,4.0
# From MPC114604
C/2018 X3 (PANSTARRS),e,43.3730,78.9006,359.7489,12.37506,0.0226403,0.78215714,19.3220,05/02.0/2021,2000,g 14.5,4.0
# From MPC118842
C/2018 Y1 (Iwamoto),e,160.3992,147.5132,358.0119,139.8505,0.0005959,0.99081341,0.0000,02/06.9717/2019,2000,g 11.5,4.0
# From MPC114605
P/2018 Y2 (Africano),e,11.6826,297.2634,162.3357,7.460676,0.0483656,0.47861998,41.1770,05/02.0/2021,2000,g 11.5,4.0
# From MPC114605
P/2019 A1 (PANSTARRS),e,13.7442,312.3024,150.7754,5.122135,0.0850212,0.56834204,79.4417,05/02.0/2021,2000,g 16.0,4.0
# From MPC114605
P/2019 A2 (ATLAS),e,14.8607,139.4700,324.0338,5.721723,0.0720135,0.38135157,64.3492,05/02.0/2021,2000,g 10.5,4.0
# From MPC114605
P/2019 A3 (PANSTARRS),e,15.3683,31.2981,325.5025,3.146648,0.1765761,0.26563991,177.2084,05/02.0/2021,2000,g 16.0,4.0
# From MPC114605
P/2019 A4 (PANSTARRS),e,13.3189,119.3002,341.8652,2.615725,0.2329786,0.08808563,204.9487,05/02.0/2021,2000,g 15.0,4.0
# From MPC118842
C/2019 A5 (PANSTARRS),e,67.5589,146.6275,355.9549,21.57409,0.0098357,0.70695187,6.8221,05/02.0/2021,2000,g  9.5,4.0
# From MPC114605
P/2019 A6 (Lemmon-PANSTARRS),e,33.2321,280.2630,156.2013,5.362046,0.0793795,0.63903463,77.5423,05/02.0/2021,2000,g 16.0,4.0
# From MPC114605
P/2019 A7 (PANSTARRS),e,17.7748,280.5220,119.2445,3.185591,0.1733481,0.16117983,209.9248,05/02.0/2021,2000,g 13.5,4.0
# From MPC115884
P/2019 A8 (PANSTARRS),e,3.3257,128.0769,23.1673,3.323436,0.1626758,0.48136443,148.4644,05/02.0/2021,2000,g 16.0,4.0
# From MPC118842
C/2019 A9 (PANSTARRS),e,84.1752,278.3842,237.9524,39.59289,0.0039562,0.96386213,2.5541,05/02.0/2021,2000,g 15.0,4.0
# From MPC114606
C/2019 B1 (Africano),e,123.3643,290.4341,174.8371,144.4300,0.0005678,0.98894516,0.0000,03/19.6691/2019,2000,g 16.0,4.0
# From MPC115885
P/2019 B2 (Groeller),e,16.8647,176.1518,359.6268,3.869781,0.1294716,0.37286814,89.6380,05/02.0/2021,2000,g 14.5,4.0
# From MPC115885
C/2019 B3 (PANSTARRS),h,01/20.0892/2021,66.5389,358.4334,263.9106,1.002216,6.823667,2000,5.5,4.0
# From MPEC 2020-AA5
C/2019 C1,e,36.0285,212.3868,319.1842,730.5966,0.0000499,0.99099235,0.0000,05/05.5106/2020,2000,g 10.0,4.0
# From MPC118842
C/2019 D1 (Flewelling),e,34.0733,231.7130,70.5391,142.0543,0.0005821,0.98888223,0.0000,05/11.8704/2019,2000,g 13.0,4.0
# From MPC119997
C/2019 E3 (ATLAS),h,11/12.8999/2023,84.2946,347.2465,280.6208,1.003505,10.314580,2000,2.5,4.0
# From MPC119997
C/2019 F1 (ATLAS-Africano),h,06/22.8182/2021,54.1751,38.7255,251.1271,1.003735,3.595560,2000,5.5,4.0
# From MPC119997
C/2019 F2 (ATLAS),e,19.2107,175.6338,11.4062,16.73391,0.0143982,0.86612960,8.6520,05/02.0/2021,2000,g 12.0,4.0
# From MPEC 2020-AA5
A/2019 G2,e,159.2062,208.1512,82.6269,639.7285,0.0000609,0.99641922,0.0000,12/09.9537/2019,2000,g 16.5,2.0
# From MPC118094
A/2019 G4,h,09/16.0914/2018,138.3862,130.4642,287.8806,1.001727,5.857870,2000,13.0,2.0
# From MPC114607
P/2019 GG21 (PANSTARRS),e,6.0840,340.5733,208.5521,7.474402,0.0482325,0.47287008,34.8242,05/02.0/2021,2000,g 12.0,4.0
# From MPC115885
C/2019 H1 (NEOWISE),e,104.5643,269.2015,19.3308,237.2496,0.0002697,0.99221879,0.0000,04/27.8300/2019,2000,g 15.5,4.0
# From MPC118842
C/2019 J1 (Lemmon),e,24.5504,98.0941,167.7902,69.56289,0.0016988,0.96434687,1.2807,05/02.0/2021,2000,g 12.0,4.0
# From MPC115885
C/2019 J2 (Palomar),e,105.1603,25.4866,98.7174,678.7052,0.0000557,0.99745508,0.0000,07/19.7120/2019,2000,g 13.0,4.0
# From MPC117071
C/2019 J3 (ATLAS),h,08/01.9972/2019,131.4093,270.5311,16.5948,1.000367,2.374465,2000,13.5,4.0
# From MPC117071
C/2019 JU6 (ATLAS),e,148.3091,21.7486,94.9198,343.4297,0.0001549,0.99404172,0.0000,05/31.9273/2019,2000,g 14.5,4.0
# From MPC119997
C/2019 K1 (ATLAS),h,02/12.9934/2020,87.1359,73.3769,265.7133,1.000059,2.012653,2000,10.0,4.0
# From MPC119997
C/2019 K4 (Ye),e,105.3007,180.1590,139.7752,1437,0.0000181,0.99842672,0.0000,06/16.2462/2019,2000,g 12.5,4.0
# From MPC119997
C/2019 K5 (Young),e,15.3159,177.1532,174.9882,159.1991,0.0004907,0.98721258,0.0000,06/22.9098/2019,2000,g 13.0,4.0
# From MPC xxxxx
C/2019 K6 (PANSTARRS),e,132.3800,42.9481,187.6342,1793,0.0000130,0.99780834,0.0000,05/20.2644/2020,2000,g 11.5,4.0
# From MPC118095
C/2019 K7 (Smith),e,103.5400,307.9299,27.3203,26966,0.0000002,0.99983403,0.0000,06/17.0439/2020,2000,g  6.2,4.0
# From MPC119997
C/2019 K8 (ATLAS),e,93.2177,291.0454,85.3735,2552,0.0000076,0.99874816,0.0000,07/21.4322/2019,2000,g 11.5,4.0
# From MPC118095
C/2019 L1 (PANSTARRS),e,9.9918,254.4156,49.9685,9.837747,0.0319419,0.70603898,20.1111,05/02.0/2021,2000,g 13.5,4.0
# From MPC115886
C/2019 L2 (NEOWISE),e,152.1870,12.5741,18.7527,24.85428,0.0079543,0.93477907,6.0552,05/02.0/2021,2000,g 16.0,4.0
# From MPC119997
C/2019 L3 (ATLAS),h,01/09.6345/2022,48.3654,290.7873,171.6237,1.001215,3.554192,2000,4.5,4.0
# From MPC118095
C/2019 LB7 (Kleyna),e,164.2912,3.9017,336.4805,34.67745,0.0048265,0.92838457,3.7028,05/02.0/2021,2000,g 17.0,4.0
# From MPC118843
P/2019 M2 (ATLAS),e,12.2819,307.5976,332.5736,3.026968,0.1871511,0.64824748,127.1459,05/02.0/2021,2000,g 21.2,4.0
# From MPC118095
C/2019 M3 (ATLAS),h,01/02.4948/2019,99.4730,154.9038,87.9149,1.000919,2.418892,2000,12.2,4.0
# From MPC119997
C/2019 N1 (ATLAS),e,82.4282,13.5740,193.4471,14198,0.0000006,0.99987994,0.0000,12/01.7884/2020,2000,g  7.5,4.0
# From MPEC 2020-AA5
A/2019 O2,e,93.2877,48.3071,129.6887,57.36001,0.0022688,0.83123024,358.3978,05/02.0/2021,2000,g  9.5,2.0
# From MPC xxxxx
C/2019 O3 (Palomar),h,03/08.0975/2021,89.8156,300.3817,60.0561,1.002455,8.819484,2000,3.5,4.0
# From MPC117072
A/2019 O4,e,115.0881,354.9146,61.8398,32.89517,0.0052240,0.88918834,2.3346,05/02.0/2021,2000,g 15.5,2.0
# From MPC xxxxx
C/2019 Q1 (Lemmon),h,07/20.2784/2020,155.7271,42.4219,56.0721,1.001532,4.998045,2000,8.5,4.0
# From MPC117072
A/2019 Q2,e,159.0218,188.0345,176.2968,57.17705,0.0022797,0.97801114,0.0000,07/22.2330/2019,2000,g 18.0,2.0
# From MPC117072
C/2019 Q3 (PANSTARRS),h,08/21.4369/2018,65.5262,151.3233,152.7012,1.003883,7.254870,2000,8.5,4.0
# From MPC117072
P/2019 S2 (PANSTARRS),e,10.4725,93.1322,216.9142,4.737108,0.0955948,0.20673721,76.4885,05/02.0/2021,2000,g 13.5,4.0
# From MPC118096
P/2019 S3 (PANSTARRS),e,8.6942,150.1598,212.9861,3.414899,0.1561843,0.47099684,96.0106,05/02.0/2021,2000,g 18.3,4.0
# From MPC xxxxx
C/2019 S4 (Lemmon),e,92.0272,63.1631,71.3650,234.0110,0.0002753,0.98529098,0.0000,04/07.9502/2020,2000,g 11.0,4.0
# From MPC118843
A/2019 T1,e,120.8699,6.9528,91.0398,38.26782,0.0041635,0.88811396,0.4483,05/02.0/2021,2000,g 13.0,2.0
# From MPC xxxxx
C/2019 T2 (Lemmon),e,111.4891,155.6428,239.3857,1949,0.0000115,0.99864231,0.0000,04/22.2734/2021,2000,g  9.0,4.0
# From MPC119998
C/2019 T3 (ATLAS),e,121.8623,139.5210,112.2863,3584,0.0000046,0.99834097,0.0000,03/02.7739/2021,2000,g  6.8,4.0
# From MPC119998
C/2019 T4 (ATLAS),e,53.6202,199.9500,351.2147,992.8744,0.0000315,0.99572712,0.0000,06/09.3572/2022,2000,g  5.0,4.0
# From MPC119998
P/2019 T5 (ATLAS),e,33.4312,247.6790,189.5858,8.005548,0.0435128,0.80917973,27.8429,05/02.0/2021,2000,g 15.0,4.0
# From MPC119998
P/2019 T6 (PANSTARRS),e,18.6945,71.2953,328.9081,5.434467,0.0777980,0.62256150,42.1031,05/02.0/2021,2000,g 15.5,4.0
# From MPC118096
P/2019 U4 (PANSTARRS),e,11.6927,200.0152,180.9727,3.520534,0.1492077,0.47555054,88.2613,05/02.0/2021,2000,g 19.0,4.0
# From MPEC 2021-G80
C/2019 U5 (PANSTARRS),h,03/30.1857/2023,113.5178,2.6482,181.5668,1.000625,3.622434,2000,4.5,4.0
# From MPEC 2020-AA5
C/2019 U6,e,60.9997,235.6980,329.6580,407.2696,0.0001199,0.99775520,0.0000,06/18.8002/2020,2000,g 14.5,2.0
# From MPC119998
C/2019 V1 (Borisov),e,61.8630,83.1990,51.1892,1798,0.0000129,0.99827708,0.0000,07/16.5096/2020,2000,g 11.0,4.0
# From MPC119998
P/2019 V2 (Groeller),e,11.8067,189.1598,336.3243,7.509974,0.0478902,0.33202689,9.1689,05/02.0/2021,2000,g 10.0,4.0
# From MPC119998
P/2019 W1 (PANSTARRS),e,23.4621,35.3966,18.6977,4.550184,0.1015455,0.26634597,73.6454,05/02.0/2021,2000,g 12.9,4.0
# From MPC119998
P/2019 X1 (Pruyne),e,10.2450,43.6945,36.5787,6.177150,0.0641981,0.30356088,41.8842,05/02.0/2021,2000,g 10.4,4.0
# From MPC119999
C/2019 Y1 (ATLAS),e,73.2679,31.5205,57.9684,85.78066,0.0012406,0.99030715,0.0000,03/15.5864/2020,2000,g 13.7,4.0
# From MPEC 2020-L06
C/2019 Y4 (ATLAS),e,45.3801,120.5742,177.3178,563.3599,0.0000737,0.99955076,0.0000,05/31.0609/2020,2000,g 11.8,6.0
# From MPEC 2020-L06
C/2019 Y4-A (ATLAS),h,05/31.0441/2020,45.8219,120.9304,177.2604,1.001366,0.251218,2000,11.6,6.0
# From MPEC 2020-L06
C/2019 Y4-B (ATLAS),e,45.4564,120.6263,177.3936,1201,0.0000237,0.99978953,0.0000,05/31.0228/2020,2000,g 12.8,6.0
# From MPEC 2020-L06
C/2019 Y4-C (ATLAS),h,05/31.0022/2020,45.6041,120.6562,177.2938,1.002084,0.252269,2000,12.7,6.0
# From MPEC 2020-L06
C/2019 Y4-D (ATLAS),e,45.6456,121.0366,177.4324,67.65458,0.0017712,0.99628018,0.0000,05/31.1197/2020,2000,g 12.5,6.0
# From MPEC 2020-L06
C/2020 A2 (Iwamoto),e,120.7417,286.3765,68.2034,1322,0.0000205,0.99926080,0.0000,01/08.3812/2020,2000,g 13.5,4.0
# From MPEC 2020-L06
C/2020 A3 (ATLAS),h,07/29.7662/2019,146.7759,120.3786,271.1716,1.025494,5.839350,2000,8.0,4.0
# From MPEC 2020-L06
C/2020 B3 (Rankin),e,20.7069,185.8314,325.0591,1328,0.0000204,0.99748276,0.0000,10/19.7016/2019,2000,g 13.0,4.0
# From MPEC 2020-L06
C/2020 F2 (ATLAS),h,07/16.4608/2022,163.5780,250.2546,48.3725,1.003381,8.816879,2000,4.5,4.0
# From MPEC 2020-L06
C/2020 F3 (NEOWISE),e,128.9348,61.0137,37.2681,354.0112,0.0001480,0.99916743,0.0000,07/03.6677/2020,2000,g 12.5,3.2
# From MPEC 2020-L06
